[{"OBJECT_NAME":"KIKU-2 (ETS-II)","OBJECT_ID":"1977-014A","EPOCH":"2026-04-03T20:26:55.888800","MEAN_MOTION":1.00025345,"ECCENTRICITY":0.00013709,"INCLINATION":5.4608,"RA_OF_ASC_NODE":284.0031,"ARG_OF_PERICENTER":80.493,"MEAN_ANOMALY":297.6959,"EPHEMERIS_TYPE":0,"CLASSIFICATION_TYPE":"U","NORAD_CAT_ID":9852,"ELEMENT_SET_NO":999,"REV_AT_EPOCH":12648,"BSTAR":0,"MEAN_MOTION_DOT":-1.42e-6,"MEAN_MOTION_DDOT":0},{"OBJECT_NAME":"TITAN 3C TRANSTAGE R/B","OBJECT_ID":"1977-007C","EPOCH":"2026-04-03T14:05:18.651552","MEAN_MOTION":1.00314833,"ECCENTRICITY":0.00171797,"INCLINATION":3.5854,"RA_OF_ASC_NODE":269.2006,"ARG_OF_PERICENTER":46.1699,"MEAN_ANOMALY":313.5627,"EPHEMERIS_TYPE":0,"CLASSIFICATION_TYPE":"U","NORAD_CAT_ID":9855,"ELEMENT_SET_NO":999,"REV_AT_EPOCH":2461,"BSTAR":0,"MEAN_MOTION_DOT":7.5e-7,"MEAN_MOTION_DDOT":0},{"OBJECT_NAME":"PALAPA 2","OBJECT_ID":"1977-018A","EPOCH":"2026-04-04T02:50:51.612288","MEAN_MOTION":1.00024836,"ECCENTRICITY":0.0003708,"INCLINATION":8.8081,"RA_OF_ASC_NODE":310.7872,"ARG_OF_PERICENTER":98.4614,"MEAN_ANOMALY":255.0276,"EPHEMERIS_TYPE":0,"CLASSIFICATION_TYPE":"U","NORAD_CAT_ID":9862,"ELEMENT_SET_NO":999,"REV_AT_EPOCH":14236,"BSTAR":0,"MEAN_MOTION_DOT":-2.0e-8,"MEAN_MOTION_DDOT":0},{"OBJECT_NAME":"MOLNIYA 1-36","OBJECT_ID":"1977-021A","EPOCH":"2026-03-31T12:07:26.479776","MEAN_MOTION":2.00593677,"ECCENTRICITY":0.67231565,"INCLINATION":63.6546,"RA_OF_ASC_NODE":118.5332,"ARG_OF_PERICENTER":281.8818,"MEAN_ANOMALY":15.014,"EPHEMERIS_TYPE":0,"CLASSIFICATION_TYPE":"U","NORAD_CAT_ID":9880,"ELEMENT_SET_NO":999,"REV_AT_EPOCH":25711,"BSTAR":0,"MEAN_MOTION_DOT":-1.025e-5,"MEAN_MOTION_DDOT":0},{"OBJECT_NAME":"GEOS-1","OBJECT_ID":"1977-029A","EPOCH":"2026-04-03T15:48:04.992768","MEAN_MOTION":1.96182044,"ECCENTRICITY":0.65962792,"INCLINATION":27.2691,"RA_OF_ASC_NODE":52.9351,"ARG_OF_PERICENTER":292.2658,"MEAN_ANOMALY":12.9049,"EPHEMERIS_TYPE":0,"CLASSIFICATION_TYPE":"U","NORAD_CAT_ID":9931,"ELEMENT_SET_NO":999,"REV_AT_EPOCH":35039,"BSTAR":0,"MEAN_MOTION_DOT":-2.93e-6,"MEAN_MOTION_DDOT":0},{"OBJECT_NAME":"TITAN 3C TRANSTAGE R/B","OBJECT_ID":"1977-034C","EPOCH":"2026-04-03T19:39:30.413664","MEAN_MOTION":0.95555717,"ECCENTRICITY":0.02887686,"INCLINATION":8.873,"RA_OF_ASC_NODE":295.3984,"ARG_OF_PERICENTER":106.2946,"MEAN_ANOMALY":79.4383,"EPHEMERIS_TYPE":0,"CLASSIFICATION_TYPE":"U","NORAD_CAT_ID":10002,"ELEMENT_SET_NO":999,"REV_AT_EPOCH":4443,"BSTAR":0,"MEAN_MOTION_DOT":-2.28e-6,"MEAN_MOTION_DDOT":0},{"OBJECT_NAME":"OPS 9751","OBJECT_ID":"1977-038A","EPOCH":"2026-04-04T14:22:15.856032","MEAN_MOTION":1.00264366,"ECCENTRICITY":0.1306343,"INCLINATION":7.4703,"RA_OF_ASC_NODE":332.0977,"ARG_OF_PERICENTER":130.7805,"MEAN_ANOMALY":37.8319,"EPHEMERIS_TYPE":0,"CLASSIFICATION_TYPE":"U","NORAD_CAT_ID":10016,"ELEMENT_SET_NO":999,"REV_AT_EPOCH":2571,"BSTAR":0,"MEAN_MOTION_DOT":-3.25e-6,"MEAN_MOTION_DDOT":0},{"OBJECT_NAME":"INTELSAT 4A-F4","OBJECT_ID":"1977-041A","EPOCH":"2026-04-04T10:51:59.938848","MEAN_MOTION":0.99445019,"ECCENTRICITY":0.00122828,"INCLINATION":9.0434,"RA_OF_ASC_NODE":311.6181,"ARG_OF_PERICENTER":278.5604,"MEAN_ANOMALY":81.5572,"EPHEMERIS_TYPE":0,"CLASSIFICATION_TYPE":"U","NORAD_CAT_ID":10024,"ELEMENT_SET_NO":999,"REV_AT_EPOCH":4624,"BSTAR":0,"MEAN_MOTION_DOT":-2.75e-6,"MEAN_MOTION_DDOT":0},{"OBJECT_NAME":"ATLAS CENTAUR R/B","OBJECT_ID":"1977-041B","EPOCH":"2026-04-01T04:56:05.250912","MEAN_MOTION":2.2288636,"ECCENTRICITY":0.71811765,"INCLINATION":21.5737,"RA_OF_ASC_NODE":283.397,"ARG_OF_PERICENTER":84.8686,"MEAN_ANOMALY":9.2425,"EPHEMERIS_TYPE":0,"CLASSIFICATION_TYPE":"U","NORAD_CAT_ID":10025,"ELEMENT_SET_NO":999,"REV_AT_EPOCH":39624,"BSTAR":0.0010919934,"MEAN_MOTION_DOT":-1.73e-6,"MEAN_MOTION_DDOT":0},{"OBJECT_NAME":"GOES 2","OBJECT_ID":"1977-048A","EPOCH":"2026-04-04T04:19:05.648736","MEAN_MOTION":0.99399494,"ECCENTRICITY":0.00137229,"INCLINATION":6.5965,"RA_OF_ASC_NODE":293.9871,"ARG_OF_PERICENTER":51.5621,"MEAN_ANOMALY":290.2118,"EPHEMERIS_TYPE":0,"CLASSIFICATION_TYPE":"U","NORAD_CAT_ID":10061,"ELEMENT_SET_NO":999,"REV_AT_EPOCH":4553,"BSTAR":0,"MEAN_MOTION_DOT":-3.4e-7,"MEAN_MOTION_DDOT":0},{"OBJECT_NAME":"RADUGA 3","OBJECT_ID":"1977-071A","EPOCH":"2026-04-04T04:26:57.395328","MEAN_MOTION":1.00327348,"ECCENTRICITY":0.0008364,"INCLINATION":4.3072,"RA_OF_ASC_NODE":274.5165,"ARG_OF_PERICENTER":304.0919,"MEAN_ANOMALY":86.5808,"EPHEMERIS_TYPE":0,"CLASSIFICATION_TYPE":"U","NORAD_CAT_ID":10159,"ELEMENT_SET_NO":999,"REV_AT_EPOCH":17630,"BSTAR":0,"MEAN_MOTION_DOT":1.23e-6,"MEAN_MOTION_DDOT":0},{"OBJECT_NAME":"SL-6 R/B(2)","OBJECT_ID":"1977-068D","EPOCH":"2026-03-31T15:13:53.951808","MEAN_MOTION":1.99744337,"ECCENTRICITY":0.7373621,"INCLINATION":62.1589,"RA_OF_ASC_NODE":326.9327,"ARG_OF_PERICENTER":47.1966,"MEAN_ANOMALY":354.6599,"EPHEMERIS_TYPE":0,"CLASSIFICATION_TYPE":"U","NORAD_CAT_ID":10167,"ELEMENT_SET_NO":999,"REV_AT_EPOCH":27926,"BSTAR":-0.003732262,"MEAN_MOTION_DOT":-9.08e-6,"MEAN_MOTION_DDOT":0},{"OBJECT_NAME":"SIRIO","OBJECT_ID":"1977-080A","EPOCH":"2026-04-04T02:52:36.444864","MEAN_MOTION":1.0027089,"ECCENTRICITY":0.00058793,"INCLINATION":7.3892,"RA_OF_ASC_NODE":299.7192,"ARG_OF_PERICENTER":149.3001,"MEAN_ANOMALY":222.1928,"EPHEMERIS_TYPE":0,"CLASSIFICATION_TYPE":"U","NORAD_CAT_ID":10294,"ELEMENT_SET_NO":999,"REV_AT_EPOCH":11718,"BSTAR":0,"MEAN_MOTION_DOT":-1.07e-6,"MEAN_MOTION_DDOT":0},{"OBJECT_NAME":"EKRAN 2","OBJECT_ID":"1977-092A","EPOCH":"2026-04-04T01:16:45.637536","MEAN_MOTION":1.00265972,"ECCENTRICITY":0.00397567,"INCLINATION":4.4269,"RA_OF_ASC_NODE":275.6752,"ARG_OF_PERICENTER":19.3496,"MEAN_ANOMALY":15.7029,"EPHEMERIS_TYPE":0,"CLASSIFICATION_TYPE":"U","NORAD_CAT_ID":10365,"ELEMENT_SET_NO":999,"REV_AT_EPOCH":13411,"BSTAR":0,"MEAN_MOTION_DOT":-3.03e-6,"MEAN_MOTION_DDOT":0},{"OBJECT_NAME":"MOLNIYA 3-8","OBJECT_ID":"1977-105A","EPOCH":"2026-03-28T09:28:52.396032","MEAN_MOTION":2.00539571,"ECCENTRICITY":0.67253894,"INCLINATION":63.7367,"RA_OF_ASC_NODE":184.8482,"ARG_OF_PERICENTER":277.4248,"MEAN_ANOMALY":16.4619,"EPHEMERIS_TYPE":0,"CLASSIFICATION_TYPE":"U","NORAD_CAT_ID":10455,"ELEMENT_SET_NO":999,"REV_AT_EPOCH":35482,"BSTAR":0,"MEAN_MOTION_DOT":1.178e-5,"MEAN_MOTION_DDOT":0},{"OBJECT_NAME":"SL-6 R/B(2)","OBJECT_ID":"1977-105E","EPOCH":"2026-03-20T10:24:54.334080","MEAN_MOTION":1.97303906,"ECCENTRICITY":0.6952684,"INCLINATION":63.8926,"RA_OF_ASC_NODE":224.2357,"ARG_OF_PERICENTER":280.1958,"MEAN_ANOMALY":13.8705,"EPHEMERIS_TYPE":0,"CLASSIFICATION_TYPE":"U","NORAD_CAT_ID":10485,"ELEMENT_SET_NO":999,"REV_AT_EPOCH":34840,"BSTAR":0,"MEAN_MOTION_DOT":7.49e-6,"MEAN_MOTION_DDOT":0},{"OBJECT_NAME":"METEOSAT-1","OBJECT_ID":"1977-108A","EPOCH":"2026-04-04T04:39:38.850624","MEAN_MOTION":1.00301746,"ECCENTRICITY":0.00109184,"INCLINATION":5.2624,"RA_OF_ASC_NODE":282.003,"ARG_OF_PERICENTER":90.0759,"MEAN_ANOMALY":265.5421,"EPHEMERIS_TYPE":0,"CLASSIFICATION_TYPE":"U","NORAD_CAT_ID":10489,"ELEMENT_SET_NO":999,"REV_AT_EPOCH":13646,"BSTAR":0,"MEAN_MOTION_DOT":9.5e-7,"MEAN_MOTION_DDOT":0},{"OBJECT_NAME":"INTELSAT 4A-F3","OBJECT_ID":"1978-002A","EPOCH":"2026-04-03T21:19:58.301472","MEAN_MOTION":0.99918207,"ECCENTRICITY":0.00041093,"INCLINATION":9.1336,"RA_OF_ASC_NODE":313.158,"ARG_OF_PERICENTER":316.0729,"MEAN_ANOMALY":232.2358,"EPHEMERIS_TYPE":0,"CLASSIFICATION_TYPE":"U","NORAD_CAT_ID":10557,"ELEMENT_SET_NO":999,"REV_AT_EPOCH":4800,"BSTAR":0,"MEAN_MOTION_DOT":-1.66e-6,"MEAN_MOTION_DDOT":0},{"OBJECT_NAME":"IUE","OBJECT_ID":"1978-012A","EPOCH":"2026-04-04T05:09:38.300832","MEAN_MOTION":1.000677,"ECCENTRICITY":0.14603283,"INCLINATION":36.9169,"RA_OF_ASC_NODE":289.5439,"ARG_OF_PERICENTER":266.1574,"MEAN_ANOMALY":285.6136,"EPHEMERIS_TYPE":0,"CLASSIFICATION_TYPE":"U","NORAD_CAT_ID":10637,"ELEMENT_SET_NO":999,"REV_AT_EPOCH":12833,"BSTAR":0,"MEAN_MOTION_DOT":3.5e-7,"MEAN_MOTION_DDOT":0},{"OBJECT_NAME":"ATLAS CENTAUR R/B","OBJECT_ID":"1978-002B","EPOCH":"2026-04-03T11:46:55.503552","MEAN_MOTION":2.2186289,"ECCENTRICITY":0.71660167,"INCLINATION":21.8917,"RA_OF_ASC_NODE":5.1953,"ARG_OF_PERICENTER":129.2118,"MEAN_ANOMALY":3.759,"EPHEMERIS_TYPE":0,"CLASSIFICATION_TYPE":"U","NORAD_CAT_ID":10722,"ELEMENT_SET_NO":999,"REV_AT_EPOCH":28295,"BSTAR":0.0014096497,"MEAN_MOTION_DOT":-5.2e-7,"MEAN_MOTION_DDOT":0},{"OBJECT_NAME":"INTELSAT 4A-F6","OBJECT_ID":"1978-035A","EPOCH":"2026-04-03T23:46:01.839648","MEAN_MOTION":1.00283044,"ECCENTRICITY":0.00080821,"INCLINATION":8.9147,"RA_OF_ASC_NODE":312.1767,"ARG_OF_PERICENTER":320.4325,"MEAN_ANOMALY":57.3811,"EPHEMERIS_TYPE":0,"CLASSIFICATION_TYPE":"U","NORAD_CAT_ID":10778,"ELEMENT_SET_NO":999,"REV_AT_EPOCH":12142,"BSTAR":0,"MEAN_MOTION_DOT":-2.88e-6,"MEAN_MOTION_DDOT":0},{"OBJECT_NAME":"ATLAS CENTAUR R/B","OBJECT_ID":"1978-035B","EPOCH":"2026-04-04T02:35:43.090368","MEAN_MOTION":2.22750698,"ECCENTRICITY":0.71854603,"INCLINATION":21.9737,"RA_OF_ASC_NODE":32.1808,"ARG_OF_PERICENTER":199.8028,"MEAN_ANOMALY":103.3983,"EPHEMERIS_TYPE":0,"CLASSIFICATION_TYPE":"U","NORAD_CAT_ID":10779,"ELEMENT_SET_NO":999,"REV_AT_EPOCH":39024,"BSTAR":0.00066485127,"MEAN_MOTION_DOT":-1.25e-6,"MEAN_MOTION_DDOT":0},{"OBJECT_NAME":"OPS 8790","OBJECT_ID":"1978-038A","EPOCH":"2026-04-04T05:50:38.728320","MEAN_MOTION":1.00492467,"ECCENTRICITY":0.00149077,"INCLINATION":3.7086,"RA_OF_ASC_NODE":323.4554,"ARG_OF_PERICENTER":303.2913,"MEAN_ANOMALY":56.1986,"EPHEMERIS_TYPE":0,"CLASSIFICATION_TYPE":"U","NORAD_CAT_ID":10787,"ELEMENT_SET_NO":999,"REV_AT_EPOCH":2451,"BSTAR":0,"MEAN_MOTION_DOT":1.14e-6,"MEAN_MOTION_DDOT":0},{"OBJECT_NAME":"YURI (BS)","OBJECT_ID":"1978-039A","EPOCH":"2026-04-04T02:48:59.292288","MEAN_MOTION":1.00203784,"ECCENTRICITY":0.00175176,"INCLINATION":5.657,"RA_OF_ASC_NODE":284.7309,"ARG_OF_PERICENTER":331.0441,"MEAN_ANOMALY":41.2541,"EPHEMERIS_TYPE":0,"CLASSIFICATION_TYPE":"U","NORAD_CAT_ID":10792,"ELEMENT_SET_NO":999,"REV_AT_EPOCH":11802,"BSTAR":0,"MEAN_MOTION_DOT":3.3e-7,"MEAN_MOTION_DDOT":0}]
